SatCatId,ObjectName,LaunchYear,OrbitalPeriod,LaunchMass,StatusCode,Inclination,Status,UcsData,OrbitClassEstimated,LaunchSiteCountry,Owner,UseType,Purpose,LaunchVehicleClass,TLE1,TLE2,MeanMotion,Eccentricity,OrbitClass
54083,STARLINK-5178,2022,95.44,-1.0,+,53.22,Active,0,LEO,USA,USA,Unknown,Unknown,Falcon,1 54083U 22136AJ  23028.27841042 -.00000545  00000+0 -16131-4 0  9998,2 54083  53.2180  35.7298 0001265 109.3619 250.7510 15.08839836 15904,15.08839836,0.0001265,LEO
54084,STARLINK-5183,2022,95.44,-1.0,+,53.22,Active,0,LEO,USA,USA,Unknown,Unknown,Falcon,1 54084U 22136AK  23027.42193070  .00002700  00000+0  18760-3 0  9998,2 54084  53.2166  39.6225 0001067  91.7680 268.3434 15.08845147 15298,15.08845147,0.0001067,LEO
54085,STARLINK-5166,2022,95.44,-1.0,+,53.22,Active,0,LEO,USA,USA,Unknown,Unknown,Falcon,1 54085U 22136AL  23027.41360331  .00001616  00000+0  11957-3 0  9990,2 54085  53.2173  39.5726 0001190  94.1564 265.9564 15.08842502 15768,15.08842502,0.000119,LEO
54086,STARLINK-5211,2022,94.95,-1.0,+,53.21,Active,0,LEO,USA,USA,Unknown,Unknown,Falcon,1 54086U 22136AM  23027.91667824 -.00903722  00000+0 -50184-1 0  9997,2 54086  53.2119  22.4938 0001527  94.4759  49.9844 15.15974166  1304,15.15974166,0.0001527,LEO
54087,STARLINK-5184,2022,95.44,-1.0,+,53.22,Active,0,LEO,USA,USA,Unknown,Unknown,Falcon,1 54087U 22136AN  23028.27104235 -.00000124  00000+0  10312-4 0  9995,2 54087  53.2178  35.6845 0001213 102.9689 257.1439 15.08838001 15893,15.08838001,0.0001213,LEO
54088,STARLINK-5153,2022,95.44,-1.0,+,53.22,Active,0,LEO,USA,USA,Unknown,Unknown,Falcon,1 54088U 22136AP  23028.28209683 -.00000143  00000+0  91348-5 0  9990,2 54088  53.2196  35.7550 0001327  91.5674 268.5471 15.08841757 15895,15.08841757,0.0001327,LEO
54089,STARLINK-5143,2022,95.44,-1.0,+,53.22,Active,0,LEO,USA,USA,Unknown,Unknown,Falcon,1 54089U 22136AQ  23027.46510934 -.00001155  00000+0 -54522-4 0  9991,2 54089  53.2175  39.1794 0001542 116.0998 244.0153 15.08834603 15306,15.08834603,0.0001542,LEO
54090,STARLINK-5177,2022,95.44,-1.0,+,53.22,Active,0,LEO,USA,USA,Unknown,Unknown,Falcon,1 54090U 22136AR  23028.19743440 -.00000746  00000+0 -28811-4 0  9991,2 54090  53.2186  35.9361 0001266  99.4904 260.6232 15.08839500 15884,15.088395,0.0001266,LEO
54091,STARLINK-5221,2022,95.44,-1.0,+,53.22,Active,0,LEO,USA,USA,Unknown,Unknown,Falcon,1 54091U 22136AS  23028.18365097 -.00001305  00000+0 -63896-4 0  9993,2 54091  53.2188  35.8591 0001264 106.6568 253.4563 15.08842921 15884,15.08842921,0.0001264,LEO
54092,STARLINK-5190,2022,95.44,-1.0,+,53.22,Active,0,LEO,USA,USA,Unknown,Unknown,Falcon,1 54092U 22136AT  23028.00240111  .00000016  00000+0  19108-4 0  9997,2 54092  53.2173  36.8501 0001539 116.4624 243.6526 15.08836282 15858,15.08836282,0.0001539,LEO
54093,STARLINK-5213,2022,95.44,-1.0,+,53.22,Active,0,LEO,USA,USA,Unknown,Unknown,Falcon,1 54093U 22136AU  23028.18269701 -.00001074  00000+0 -49407-4 0  9995,2 54093  53.2190  35.8506 0001193 100.9230 259.1897 15.08835899 15888,15.08835899,0.0001193,LEO
54094,STARLINK-5219,2022,95.44,-1.0,+,53.22,Active,0,LEO,USA,USA,Unknown,Unknown,Falcon,1 54094U 22136AV  23028.19006277 -.00000379  00000+0 -57396-5 0  9998,2 54094  53.2181  35.8959 0001432 100.5295 259.5858 15.08839901 15883,15.08839901,0.0001432,LEO
54095,STARLINK-5193,2022,95.44,-1.0,+,53.22,Active,0,LEO,USA,USA,Unknown,Unknown,Falcon,1 54095U 22136AW  23028.24156500  .00000434  00000+0  45335-4 0  9999,2 54095  53.2187  35.4994 0001681 121.4042 238.7115 15.08838355 15891,15.08838355,0.0001681,LEO
54096,STARLINK-5188,2022,95.44,-1.0,+,53.22,Active,0,LEO,USA,USA,Unknown,Unknown,Falcon,1 54096U 22136AX  23028.18638112 -.00000709  00000+0 -26441-4 0  9991,2 54096  53.2198  35.8732 0001292 105.8769 254.2365 15.08835511 15888,15.08835511,0.0001292,LEO
54097,STARLINK-5197,2022,92.31,-1.0,+,53.21,Active,0,LEO,USA,USA,Unknown,Unknown,Falcon,1 54097U 22136AY  23027.91667824 -.00897556  00000+0 -12292-1 0  9994,2 54097  53.2142  16.7478 0001337  86.3014  49.7400 15.59312958  1309,15.59312958,0.0001337,LEO
54098,STARLINK-5217,2022,95.44,-1.0,+,53.22,Active,0,LEO,USA,USA,Unknown,Unknown,Falcon,1 54098U 22136AZ  23028.23788063 -.00000844  00000+0 -34931-4 0  9993,2 54098  53.2178  35.4822 0001256  99.6212 260.4923 15.08839673 15890,15.08839673,0.0001256,LEO
54099,STARLINK-5198,2022,95.44,-1.0,+,53.22,Active,0,LEO,USA,USA,Unknown,Unknown,Falcon,1 54099U 22136BA  23028.23051360  .00000143  00000+0  27094-4 0  9999,2 54099  53.2191  35.4367 0001133  86.5904 273.5218 15.08829075 15894,15.08829075,0.0001133,LEO
54100,STARLINK-5185,2022,95.44,-1.0,+,53.22,Active,0,LEO,USA,USA,Unknown,Unknown,Falcon,1 54100U 22136BB  23028.17900913 -.00004634  00000+0 -27316-3 0  9999,2 54100  53.2197  35.8284 0001284 105.0009 255.1125 15.08854067 15886,15.08854067,0.0001284,LEO
54101,STARLINK-5204,2022,94.8,-1.0,+,53.21,Active,0,LEO,USA,USA,Unknown,Unknown,Falcon,1 54101U 22136BC  23028.33334491 -.00892404  00000+0 -47368-1 0  9997,2 54101  53.2155  20.3134 0001404  83.4261 323.1502 15.17511965 16116,15.17511965,0.0001404,LEO
54102,STARLINK-5179,2022,95.44,-1.0,+,53.22,Active,0,LEO,USA,USA,Unknown,Unknown,Falcon,1 54102U 22136BD  23028.16795365 -.00000742  00000+0 -28514-4 0  9991,2 54102  53.2161  35.7502 0001444 104.4940 255.6212 15.08837582 15881,15.08837582,0.0001444,LEO
54103,STARLINK-5200,2022,93.64,-1.0,+,53.21,Active,0,LEO,USA,USA,Unknown,Unknown,Falcon,1 54103U 22136BE  23027.91667824 -.00899946  00000+0 -26531-1 0  9998,2 54103  53.2140  18.8281 0001445  93.6262  85.3144 15.37156946  1306,15.37156946,0.0001445,LEO
54104,STARLINK-5203,2022,91.53,-1.0,+,53.21,Active,0,LEO,USA,USA,Unknown,Unknown,Falcon,1 54104U 22136BF  23028.24514033  .00017580  00000+0  12913-3 0  9994,2 54104  53.2141  14.7946 0000980  98.3386 261.7746 15.73251156 16182,15.73251156,9.8e-05,LEO
54109,COSMOS 2561,2022,92.65,-1.0,+,97.07,Active,0,LEO,Russia,Russia/USSR,Unknown,Unknown,Unknown,1 54109U 22137A   23027.84221717  .00022030  00000+0  33772-3 0  9991,2 54109  97.0669 111.4372 0007053 270.8531  89.1916 15.54305565 15209,15.54305565,0.0007053,LEO
54110,COSMOS 2562,2022,92.25,-1.0,+,97.18,Active,0,LEO,Russia,Russia/USSR,Unknown,Unknown,Unknown,1 54110U 22137B   23027.89116201  .00034769  00000+0  41417-3 0  9996,2 54110  97.1842 113.3561 0011735 347.5513  12.5453 15.60941829 15268,15.60941829,0.0011735,LEO
54113,ONEWEB-0490,2022,108.56,-1.0,+,87.94,Active,0,LEO,India,UK,Unknown,Unknown,Soyuz,1 54113U 22138A   23028.33334491  .00000013  00000+0  00000+0 0  9997,2 54113  87.9379 190.6535 0001459  81.0042 320.4004 13.25019431 14694,13.25019431,0.0001459,LEO
54114,ONEWEB-0492,2022,109.1,-1.0,+,87.93,Active,0,LEO,India,UK,Unknown,Unknown,Soyuz,1 54114U 22138B   23027.91667824  .00023824  00000+0  59326-1 0  9992,2 54114  87.9325 190.7540 0001559  77.3609  51.0529 13.19720850  1301,13.1972085,0.0001559,LEO
54115,ONEWEB-0495,2022,108.43,-1.0,+,87.96,Active,0,LEO,India,UK,Unknown,Unknown,Soyuz,1 54115U 22138C   23028.33334491  .00047440  00000+0  10682+0 0  9991,2 54115  87.9549 190.6510 0001462  84.5110 239.1036 13.26322081 14685,13.26322081,0.0001462,LEO
54116,ONEWEB-0497,2022,109.17,-1.0,+,87.94,Active,0,LEO,India,UK,Unknown,Unknown,Soyuz,1 54116U 22138D   23028.33334491  .00000013  00000+0  00000+0 0  9990,2 54116  87.9367 190.6909 0003978  81.2580 266.1380 13.18818893 14678,13.18818893,0.0003978,LEO
54117,ONEWEB-0499,2022,109.02,-1.0,+,87.95,Active,0,LEO,India,UK,Unknown,Unknown,Soyuz,1 54117U 22138E   23028.33334491  .00047622  00000+0  12021+0 0  9994,2 54117  87.9457 190.6437 0002116  82.4492 357.9783 13.18641458 14681,13.18641458,0.0002116,LEO
54118,ONEWEB-0500,2022,108.95,-1.0,+,87.94,Active,0,LEO,India,UK,Unknown,Unknown,Soyuz,1 54118U 22138F   23028.33334491  .00000013  00000+0  00000+0 0  9992,2 54118  87.9297 190.6943 0001718  87.5370 358.1403 13.19722048 14693,13.19722048,0.0001718,LEO
54119,ONEWEB-0501,2022,109.11,-1.0,+,87.93,Active,0,LEO,India,UK,Unknown,Unknown,Soyuz,1 54119U 22138G   23028.20133153 -.00005281  00000+0 -13230-1 0  9996,2 54119  87.9338 190.7144 0002030  66.4960 293.6385 13.19725696 14653,13.19725696,0.000203,LEO
54120,ONEWEB-0502,2022,109.14,-1.0,+,87.94,Active,0,LEO,India,UK,Unknown,Unknown,Soyuz,1 54120U 22138H   23028.33334491 -.00024275  00000+0 -61136-1 0  9992,2 54120  87.9375 190.6728 0001498  74.7278 262.7638 13.19385755 14694,13.19385755,0.0001498,LEO
54121,ONEWEB-0503,2022,108.83,-1.0,+,87.94,Active,0,LEO,India,UK,Unknown,Unknown,Soyuz,1 54121U 22138J   23028.33334491  .00000013  00000+0  00000+0 0  9996,2 54121  87.9384 190.6892 0001596  86.1747 300.2497 13.20992286 14689,13.20992286,0.0001596,LEO
54122,ONEWEB-0504,2022,109.1,-1.0,+,87.93,Active,0,LEO,India,UK,Unknown,Unknown,Soyuz,1 54122U 22138K   23028.01183728  .00000088  00000+0  18698-3 0  9995,2 54122  87.9344 190.7322 0001057  83.0054 277.1199 13.19899591 14655,13.19899591,0.0001057,LEO
54123,ONEWEB-0505,2022,108.47,-1.0,+,87.96,Active,0,LEO,India,UK,Unknown,Unknown,Soyuz,1 54123U 22138L   23028.33334491  .00051521  00000+0  11633+0 0  9992,2 54123  87.9570 190.6781 0001806  85.3792 334.6635 13.26108473 14677,13.26108473,0.0001806,LEO
54124,ONEWEB-0506,2022,109.11,-1.0,+,87.94,Active,0,LEO,India,UK,Unknown,Unknown,Soyuz,1 54124U 22138M   23027.91667824  .00023352  00000+0  58325-1 0  9997,2 54124  87.9373 190.7698 0002514  76.9364 334.5452 13.19520091  1303,13.19520091,0.0002514,LEO
54125,ONEWEB-0507,2022,108.48,-1.0,+,87.96,Active,0,LEO,India,UK,Unknown,Unknown,Soyuz,1 54125U 22138N   23027.91667824  .00021790  00000+0  49013-1 0  9996,2 54125  87.9617 190.7533 0001297  63.1939 196.6976 13.26560259  1302,13.26560259,0.0001297,LEO
54126,ONEWEB-0508,2022,108.61,-1.0,+,87.96,Active,0,LEO,India,UK,Unknown,Unknown,Soyuz,1 54126U 22138P   23028.33334491  .00000013  00000+0  00000+0 0  9991,2 54126  87.9474 190.6958 0001759  71.4265  62.9411 13.23689473 14693,13.23689473,0.0001759,LEO
